CCSDS_OMM_VERS = 2.0
CREATION_DATE  = 
ORIGINATOR     = 

OBJECT_NAME    = STARLINK-36673
OBJECT_ID      = 2026-022N
CENTER_NAME    = EARTH
REF_FRAME      = TEME
TIME_SYSTEM    = UTC
MEAN_ELEMENT_THEORY = SGP/SGP4

EPOCH          = 2026-03-04T01:23:42.063936
MEAN_MOTION    = 15.75308407
ECCENTRICITY   = .00014854
INCLINATION    = 97.2836
RA_OF_ASC_NODE = 96.7752
ARG_OF_PERICENTER = 94.0104
MEAN_ANOMALY   = 266.1331

EPHEMERIS_TYPE = 0
CLASSIFICATION_TYPE = U
NORAD_CAT_ID   = 67660
ELEMENT_SET_NO = 999
REV_AT_EPOCH   = 466
BSTAR          = .14466434E-2
MEAN_MOTION_DOT = .222499E-2
MEAN_MOTION_DDOT = 0

CCSDS_OMM_VERS = 2.0
CREATION_DATE  = 
ORIGINATOR     = 

OBJECT_NAME    = STARLINK-36674
OBJECT_ID      = 2026-022P
CENTER_NAME    = EARTH
REF_FRAME      = TEME
TIME_SYSTEM    = UTC
MEAN_ELEMENT_THEORY = SGP/SGP4

EPOCH          = 2026-03-04T01:21:40.370400
MEAN_MOTION    = 15.75259766
ECCENTRICITY   = .00008694
INCLINATION    = 97.2848
RA_OF_ASC_NODE = 96.7768
ARG_OF_PERICENTER = 103.9185
MEAN_ANOMALY   = 256.2177

EPHEMERIS_TYPE = 0
CLASSIFICATION_TYPE = U
NORAD_CAT_ID   = 67661
ELEMENT_SET_NO = 999
REV_AT_EPOCH   = 466
BSTAR          = .11293916E-2
MEAN_MOTION_DOT = .172286E-2
MEAN_MOTION_DDOT = 0

CCSDS_OMM_VERS = 2.0
CREATION_DATE  = 
ORIGINATOR     = 

OBJECT_NAME    = STARLINK-36700
OBJECT_ID      = 2026-022Q
CENTER_NAME    = EARTH
REF_FRAME      = TEME
TIME_SYSTEM    = UTC
MEAN_ELEMENT_THEORY = SGP/SGP4

EPOCH          = 2026-03-04T13:30:28.512000
MEAN_MOTION    = 15.75282001
ECCENTRICITY   = .00010589
INCLINATION    = 97.2821
RA_OF_ASC_NODE = 97.3135
ARG_OF_PERICENTER = 53.5757
MEAN_ANOMALY   = 306.5606

EPHEMERIS_TYPE = 0
CLASSIFICATION_TYPE = U
NORAD_CAT_ID   = 67662
ELEMENT_SET_NO = 999
REV_AT_EPOCH   = 474
BSTAR          = .30309488E-2
MEAN_MOTION_DOT = .480269E-2
MEAN_MOTION_DDOT = 0

CCSDS_OMM_VERS = 2.0
CREATION_DATE  = 
ORIGINATOR     = 

OBJECT_NAME    = STARLINK-36675
OBJECT_ID      = 2026-022R
CENTER_NAME    = EARTH
REF_FRAME      = TEME
TIME_SYSTEM    = UTC
MEAN_ELEMENT_THEORY = SGP/SGP4

EPOCH          = 2026-03-04T07:26:34.752480
MEAN_MOTION    = 15.75300862
ECCENTRICITY   = .00020056
INCLINATION    = 97.2822
RA_OF_ASC_NODE = 97.0444
ARG_OF_PERICENTER = 131.3776
MEAN_ANOMALY   = 228.7662

EPHEMERIS_TYPE = 0
CLASSIFICATION_TYPE = U
NORAD_CAT_ID   = 67663
ELEMENT_SET_NO = 999
REV_AT_EPOCH   = 470
BSTAR          = .22131469E-2
MEAN_MOTION_DOT = .345331E-2
MEAN_MOTION_DDOT = 0

CCSDS_OMM_VERS = 2.0
CREATION_DATE  = 
ORIGINATOR     = 

OBJECT_NAME    = STARLINK-36404
OBJECT_ID      = 2026-022S
CENTER_NAME    = EARTH
REF_FRAME      = TEME
TIME_SYSTEM    = UTC
MEAN_ELEMENT_THEORY = SGP/SGP4

EPOCH          = 2026-03-04T02:47:33.642240
MEAN_MOTION    = 15.75253123
ECCENTRICITY   = .00015145
INCLINATION    = 97.2831
RA_OF_ASC_NODE = 96.8479
ARG_OF_PERICENTER = 77.7975
MEAN_ANOMALY   = 282.3460

EPHEMERIS_TYPE = 0
CLASSIFICATION_TYPE = U
NORAD_CAT_ID   = 67664
ELEMENT_SET_NO = 999
REV_AT_EPOCH   = 467
BSTAR          = .44917712E-3
MEAN_MOTION_DOT = .67585E-3
MEAN_MOTION_DDOT = 0

CCSDS_OMM_VERS = 2.0
CREATION_DATE  = 
ORIGINATOR     = 

OBJECT_NAME    = STARLINK-36399
OBJECT_ID      = 2026-022T
CENTER_NAME    = EARTH
REF_FRAME      = TEME
TIME_SYSTEM    = UTC
MEAN_ELEMENT_THEORY = SGP/SGP4

EPOCH          = 2026-03-04T01:15:03.684672
MEAN_MOTION    = 15.75321589
ECCENTRICITY   = .00024965
INCLINATION    = 97.2835
RA_OF_ASC_NODE = 96.7825
ARG_OF_PERICENTER = 146.7387
MEAN_ANOMALY   = 213.4036

EPHEMERIS_TYPE = 0
CLASSIFICATION_TYPE = U
NORAD_CAT_ID   = 67665
ELEMENT_SET_NO = 999
REV_AT_EPOCH   = 466
BSTAR          = .17377974E-2
MEAN_MOTION_DOT = .268939E-2
MEAN_MOTION_DDOT = 0

CCSDS_OMM_VERS = 2.0
CREATION_DATE  = 
ORIGINATOR     = 

OBJECT_NAME    = STARLINK-36365
OBJECT_ID      = 2026-022U
CENTER_NAME    = EARTH
REF_FRAME      = TEME
TIME_SYSTEM    = UTC
MEAN_ELEMENT_THEORY = SGP/SGP4

EPOCH          = 2026-03-04T01:13:02.047296
MEAN_MOTION    = 15.75271770
ECCENTRICITY   = .00012427
INCLINATION    = 97.2843
RA_OF_ASC_NODE = 96.7852
ARG_OF_PERICENTER = 111.6840
MEAN_ANOMALY   = 248.4558

EPHEMERIS_TYPE = 0
CLASSIFICATION_TYPE = U
NORAD_CAT_ID   = 67666
ELEMENT_SET_NO = 999
REV_AT_EPOCH   = 466
BSTAR          = .13331077E-2
MEAN_MOTION_DOT = .204261E-2
MEAN_MOTION_DDOT = 0

CCSDS_OMM_VERS = 2.0
CREATION_DATE  = 
ORIGINATOR     = 

OBJECT_NAME    = STARLINK-36622
OBJECT_ID      = 2026-022V
CENTER_NAME    = EARTH
REF_FRAME      = TEME
TIME_SYSTEM    = UTC
MEAN_ELEMENT_THEORY = SGP/SGP4

EPOCH          = 2026-03-04T01:10:29.546112
MEAN_MOTION    = 15.75398908
ECCENTRICITY   = .00019763
INCLINATION    = 97.2837
RA_OF_ASC_NODE = 96.7873
ARG_OF_PERICENTER = 156.5347
MEAN_ANOMALY   = 203.6009

EPHEMERIS_TYPE = 0
CLASSIFICATION_TYPE = U
NORAD_CAT_ID   = 67667
ELEMENT_SET_NO = 999
REV_AT_EPOCH   = 466
BSTAR          = .28383491E-2
MEAN_MOTION_DOT = .450382E-2
MEAN_MOTION_DDOT = 0

CCSDS_OMM_VERS = 2.0
CREATION_DATE  = 
ORIGINATOR     = 

OBJECT_NAME    = STARLINK-36625
OBJECT_ID      = 2026-022W
CENTER_NAME    = EARTH
REF_FRAME      = TEME
TIME_SYSTEM    = UTC
MEAN_ELEMENT_THEORY = SGP/SGP4

EPOCH          = 2026-03-04T10:17:20.757408
MEAN_MOTION    = 15.75348374
ECCENTRICITY   = .00019504
INCLINATION    = 97.2834
RA_OF_ASC_NODE = 97.1888
ARG_OF_PERICENTER = 21.6123
MEAN_ANOMALY   = 338.5225

EPHEMERIS_TYPE = 0
CLASSIFICATION_TYPE = U
NORAD_CAT_ID   = 67668
ELEMENT_SET_NO = 999
REV_AT_EPOCH   = 472
BSTAR          = .3136985E-2
MEAN_MOTION_DOT = .499616E-2
MEAN_MOTION_DDOT = 0

CCSDS_OMM_VERS = 2.0
CREATION_DATE  = 
ORIGINATOR     = 

OBJECT_NAME    = STARLINK-36639
OBJECT_ID      = 2026-022X
CENTER_NAME    = EARTH
REF_FRAME      = TEME
TIME_SYSTEM    = UTC
MEAN_ELEMENT_THEORY = SGP/SGP4

EPOCH          = 2026-03-04T01:05:55.137984
MEAN_MOTION    = 15.75413914
ECCENTRICITY   = .00020149
INCLINATION    = 97.2837
RA_OF_ASC_NODE = 96.7914
ARG_OF_PERICENTER = 147.8503
MEAN_ANOMALY   = 212.2886

EPHEMERIS_TYPE = 0
CLASSIFICATION_TYPE = U
NORAD_CAT_ID   = 67669
ELEMENT_SET_NO = 999
REV_AT_EPOCH   = 466
BSTAR          = .30622942E-2
MEAN_MOTION_DOT = .488447E-2
MEAN_MOTION_DDOT = 0

CCSDS_OMM_VERS = 2.0
CREATION_DATE  = 
ORIGINATOR     = 

OBJECT_NAME    = STARLINK-36596
OBJECT_ID      = 2026-022Y
CENTER_NAME    = EARTH
REF_FRAME      = TEME
TIME_SYSTEM    = UTC
MEAN_ELEMENT_THEORY = SGP/SGP4

EPOCH          = 2026-03-04T13:15:12.700512
MEAN_MOTION    = 15.75338893
ECCENTRICITY   = .00009816
INCLINATION    = 97.2830
RA_OF_ASC_NODE = 97.3266
ARG_OF_PERICENTER = 36.7043
MEAN_ANOMALY   = 323.4289

EPHEMERIS_TYPE = 0
CLASSIFICATION_TYPE = U
NORAD_CAT_ID   = 67670
ELEMENT_SET_NO = 999
REV_AT_EPOCH   = 474
BSTAR          = .18874597E-2
MEAN_MOTION_DOT = .293164E-2
MEAN_MOTION_DDOT = 0

CCSDS_OMM_VERS = 2.0
CREATION_DATE  = 
ORIGINATOR     = 

OBJECT_NAME    = STARLINK-36297
OBJECT_ID      = 2026-022Z
CENTER_NAME    = EARTH
REF_FRAME      = TEME
TIME_SYSTEM    = UTC
MEAN_ELEMENT_THEORY = SGP/SGP4

EPOCH          = 2026-03-04T01:00:19.716768
MEAN_MOTION    = 15.75348738
ECCENTRICITY   = .00008093
INCLINATION    = 97.2837
RA_OF_ASC_NODE = 96.7970
ARG_OF_PERICENTER = 158.5022
MEAN_ANOMALY   = 201.6277

EPHEMERIS_TYPE = 0
CLASSIFICATION_TYPE = U
NORAD_CAT_ID   = 67671
ELEMENT_SET_NO = 999
REV_AT_EPOCH   = 466
BSTAR          = .22646201E-2
MEAN_MOTION_DOT = .354498E-2
MEAN_MOTION_DDOT = 0

