STARLINK-36673          
1 67660U 26022N   26063.05812574  .00222499  00000+0  14466-2 0  9996
2 67660  97.2836  96.7752 0001485  94.0104 266.1331 15.75308407  4662
STARLINK-36674          
1 67661U 26022P   26063.05671725  .00172286  00000+0  11294-2 0  9992
2 67661  97.2848  96.7768 0000869 103.9185 256.2177 15.75259766  4668
STARLINK-36700          
1 67662U 26022Q   26063.56283000  .00480269  00000+0  30309-2 0  9995
2 67662  97.2821  97.3135 0001058  53.5757 306.5606 15.75282001  4744
STARLINK-36675          
1 67663U 26022R   26063.31012445  .00345331  00000+0  22131-2 0  9996
2 67663  97.2822  97.0444 0002005 131.3776 228.7662 15.75300862  4704
STARLINK-36404          
1 67664U 26022S   26063.11636160  .00067585  00000+0  44918-3 0  9991
2 67664  97.2831  96.8479 0001514  77.7975 282.3460 15.75253123  4673
STARLINK-36399          
1 67665U 26022T   26063.05212598  .00268939  00000+0  17378-2 0  9995
2 67665  97.2835  96.7825 0002496 146.7387 213.4036 15.75321589  4661
STARLINK-36365          
1 67666U 26022U   26063.05071814  .00204261  00000+0  13331-2 0  9993
2 67666  97.2843  96.7852 0001242 111.6840 248.4558 15.75271770  4667
STARLINK-36622          
1 67667U 26022V   26063.04895308  .00450382  00000+0  28383-2 0  9995
2 67667  97.2837  96.7873 0001976 156.5347 203.6009 15.75398908  4665
STARLINK-36625          
1 67668U 26022W   26063.42871247  .00499616  00000+0  31370-2 0  9997
2 67668  97.2834  97.1888 0001950  21.6123 338.5225 15.75348374  4727
STARLINK-36639          
1 67669U 26022X   26063.04577706  .00488447  00000+0  30623-2 0  9999
2 67669  97.2837  96.7914 0002014 147.8503 212.2886 15.75413914  4668
STARLINK-36596          
1 67670U 26022Y   26063.55223033  .00293164  00000+0  18875-2 0  9993
2 67670  97.2830  97.3266 0000981  36.7043 323.4289 15.75338893  4749
STARLINK-36297          
1 67671U 26022Z   26063.04189487  .00354498  00000+0  22646-2 0  9991
2 67671  97.2837  96.7970 0000809 158.5022 201.6277 15.75348738  4665
